COMMENT,ORIGINATOR,NORAD_CAT_ID,OBJECT_NAME,OBJECT_TYPE,CLASSIFICATION_TYPE,INTLDES,EPOCH,EPOCH_MICROSECONDS,MEAN_MOTION,ECCENTRICITY,INCLINATION,RA_OF_ASC_NODE,ARG_OF_PERICENTER,MEAN_ANOMALY,EPHEMERIS_TYPE,ELEMENT_SET_NO,REV_AT_EPOCH,BSTAR,MEAN_MOTION_DOT,MEAN_MOTION_DDOT,FILE,TLE_LINE0,TLE_LINE1,TLE_LINE2,OBJECT_ID,OBJECT_NUMBER,SEMIMAJOR_AXIS,PERIOD,APOGEE,PERIGEE,DECAYED
"GENERATED VIA SPACETRACK.ORG API","18 SPCS","48897","SPACEBEE-109","PAYLOAD","U","21059U","2022-12-27 15:05:19","172832","15.20719684","0.000877","97.5783","131.3758","147.3218","212.8561","0","999","8324","0.00087549","0.00019238","0","3724149","0 SPACEBEE-109","1 48897U 21059U   22361.62869413  .00019238  00000-0  87549-3 0  9995","2 48897  97.5783 131.3758 0008770 147.3218 212.8561 15.20719684 83248","2021-059U","48897","6881.806","94.692","509.706","497.635","0"
"GENERATED VIA SPACETRACK.ORG API","18 SPCS","48897","SPACEBEE-109","PAYLOAD","U","21059U","2022-12-27 15:05:19","172832","15.20719684","0.000877","97.5783","131.3758","147.3218","212.8561","0","999","8324","0.00087549","0.00019238","0","3724691","0 SPACEBEE-109","1 48897U 21059U   22361.62869413  .00019238  00000-0  87549-3 0  9995","2 48897  97.5783 131.3758 0008770 147.3218 212.8561 15.20719684 83248","2021-059U","48897","6881.806","94.692","509.706","497.635","0"
"GENERATED VIA SPACETRACK.ORG API","18 SPCS","48897","SPACEBEE-109","PAYLOAD","U","21059U","2022-12-27 19:49:34","536288","15.20726071","0.0008773","97.5781","131.5743","146.6223","213.5567","0","999","8327","0.00079078","0.00017369","0","3724805","0 SPACEBEE-109","1 48897U 21059U   22361.82609417  .00017369  00000-0  79078-3 0  9994","2 48897  97.5781 131.5743 0008773 146.6223 213.5567 15.20726071 83278","2021-059U","48897","6881.786","94.692","509.689","497.614","0"
"GENERATED VIA SPACETRACK.ORG API","18 SPCS","48897","SPACEBEE-109","PAYLOAD","U","21059U","2022-12-27 21:24:19","638144","15.20728688","0.0008774","97.5781","131.6405","146.3804","213.7989","0","999","8328","0.00078405","0.00017221","0","3725038","0 SPACEBEE-109","1 48897U 21059U   22361.89189396  .00017221  00000-0  78405-3 0  9990","2 48897  97.5781 131.6405 0008774 146.3804 213.7989 15.20728688 83284","2021-059U","48897","6881.778","94.691","509.681","497.605","0"
"GENERATED VIA SPACETRACK.ORG API","18 SPCS","48897","SPACEBEE-109","PAYLOAD","U","21059U","2022-12-28 22:40:20","320896","15.20760293","0.0008793","97.5776","132.6991","143.0869","217.0973","0","999","8344","0.00057729","0.00012665","0","3725223","0 SPACEBEE-109","1 48897U 21059U   22362.94467964  .00012665  00000-0  57729-3 0  9990","2 48897  97.5776 132.6991 0008793 143.0869 217.0973 15.20760293 83441","2021-059U","48897","6881.683","94.689","509.599","497.497","0"
"GENERATED VIA SPACETRACK.ORG API","18 SPCS","48897","SPACEBEE-109","PAYLOAD","U","21059U","2022-12-28 22:40:20","320896","15.20760293","0.0008793","97.5776","132.6991","143.0869","217.0973","0","999","8344","0.00057729","0.00012665","0","3725790","0 SPACEBEE-109","1 48897U 21059U   22362.94467964  .00012665  00000-0  57729-3 0  9990","2 48897  97.5776 132.6991 0008793 143.0869 217.0973 15.20760293 83441","2021-059U","48897","6881.683","94.689","509.599","497.497","0"
"GENERATED VIA SPACETRACK.ORG API","18 SPCS","48897","SPACEBEE-109","PAYLOAD","U","21059U","2022-12-30 07:50:03","350688","15.20810912","0.0008785","97.5773","134.0885","138.7048","221.4853","0","999","8365","0.00093469","0.00020603","0","3726624","0 SPACEBEE-109","1 48897U 21059U   22364.32642767  .00020603  00000-0  93469-3 0  9992","2 48897  97.5773 134.0885 0008785 138.7048 221.4853 15.20810912 83650","2021-059U","48897","6881.530","94.686","509.441","497.350","0"
"GENERATED VIA SPACETRACK.ORG API","18 SPCS","48897","SPACEBEE-109","PAYLOAD","U","21059U","2022-12-30 07:50:03","350688","15.20810912","0.0008785","97.5773","134.0885","138.7048","221.4853","0","999","8365","0.00093469","0.00020603","0","3726810","0 SPACEBEE-109","1 48897U 21059U   22364.32642767  .00020603  00000-0  93469-3 0  9992","2 48897  97.5773 134.0885 0008785 138.7048 221.4853 15.20810912 83650","2021-059U","48897","6881.530","94.686","509.441","497.350","0"
"GENERATED VIA SPACETRACK.ORG API","18 SPCS","48897","SPACEBEE-109","PAYLOAD","U","21059U","2022-12-31 07:31:14","296224","15.20852019","0.000883","97.5771","135.0813","135.3392","224.8555","0","999","8380","0.00095162","0.00021004","0","3727988","0 SPACEBEE-109","1 48897U 21059U   22365.31335991  .00021004  00000-0  95162-3 0  9998","2 48897  97.5771 135.0813 0008830 135.3392 224.8555 15.20852019 83803","2021-059U","48897","6881.406","94.684","509.348","497.195","0"
"GENERATED VIA SPACETRACK.ORG API","18 SPCS","48897","SPACEBEE-109","PAYLOAD","U","21059U","2022-12-31 15:24:57","408768","15.20864932","0.0008856","97.5772","135.4121","134.162","226.0344","0","999","8385","0.00090987","0.00020084","0","3728081","0 SPACEBEE-109","1 48897U 21059U   22365.64233112  .00020084  00000-0  90987-3 0  9993","2 48897  97.5772 135.4121 0008856 134.1620 226.0344 15.20864932 83851","2021-059U","48897","6881.367","94.683","509.327","497.138","0"
"GENERATED VIA SPACETRACK.ORG API","18 SPCS","48897","SPACEBEE-109","PAYLOAD","U","21059U","2023-01-01 08:47:07","382688","15.20894919","0.0008897","97.5773","136.14","131.6499","228.5499","0","999","8396","0.00088562","0.00019563","0","3728759","0 SPACEBEE-109","1 48897U 21059U   23001.36605767  .00019563  00000-0  88562-3 0  9995","2 48897  97.5773 136.1400 0008897 131.6499 228.5499 15.20894919 83969","2021-059U","48897","6881.277","94.681","509.264","497.020","0"
"GENERATED VIA SPACETRACK.ORG API","18 SPCS","48897","SPACEBEE-109","PAYLOAD","U","21059U","2023-01-01 22:59:47","476032","15.20914894","0.0008953","97.5774","136.7357","129.8329","230.3695","0","999","8405","0.00078785","0.00017401","0","3729211","0 SPACEBEE-109","1 48897U 21059U   23001.95818838  .00017401  00000-0  78785-3 0  9990","2 48897  97.5774 136.7357 0008953 129.8329 230.3695 15.20914894 84056","2021-059U","48897","6881.217","94.680","509.242","496.921","0"
"GENERATED VIA SPACETRACK.ORG API","18 SPCS","48897","SPACEBEE-109","PAYLOAD","U","21059U","2023-01-02 14:47:11","148000","15.2093657","0.0008941","97.5773","137.3974","127.8129","232.3916","0","999","8415","0.00072642","0.00016046","0","3729583","0 SPACEBEE-109","1 48897U 21059U   23002.61610125  .00016046  00000-0  72642-3 0  9993","2 48897  97.5773 137.3974 0008941 127.8129 232.3916 15.20936570 84154","2021-059U","48897","6881.151","94.679","509.169","496.864","0"
"GENERATED VIA SPACETRACK.ORG API","18 SPCS","48897","SPACEBEE-109","PAYLOAD","U","21059U","2023-01-02 22:40:52","685472","15.20947509","0.0008931","97.5773","137.7283","126.8271","233.3784","0","999","8420","0.00069855","0.00015431","0","3730926","0 SPACEBEE-109","1 48897U 21059U   23002.94505423  .00015431  00000-0  69855-3 0  9992","2 48897  97.5773 137.7283 0008931 126.8271 233.3784 15.20947509 84201","2021-059U","48897","6881.118","94.678","509.129","496.838","0"
"GENERATED VIA SPACETRACK.ORG API","18 SPCS","48897","SPACEBEE-109","PAYLOAD","U","21059U","2023-01-03 14:28:15","171168","15.20968543","0.0008899","97.5774","138.3902","124.7692","235.4382","0","999","8430","0.00069565","0.00015376","0","3730808","0 SPACEBEE-109","1 48897U 21059U   23003.60295337  .00015376  00000-0  69565-3 0  9992","2 48897  97.5774 138.3902 0008899 124.7692 235.4382 15.20968543 84303","2021-059U","48897","6881.055","94.677","509.043","496.796","0"
"GENERATED VIA SPACETRACK.ORG API","18 SPCS","48897","SPACEBEE-109","PAYLOAD","U","21059U","2023-01-04 14:09:17","229600","15.21012752","0.0008867","97.5775","139.3832","121.3292","238.8812","0","999","8445","0.0010615","0.00023556","0","3731823","0 SPACEBEE-109","1 48897U 21059U   23004.58978275  .00023556  00000-0  10615-2 0  9999","2 48897  97.5775 139.3832 0008867 121.3292 238.8812 15.21012752 84455","2021-059U","48897","6880.922","94.674","508.888","496.685","0"
"GENERATED VIA SPACETRACK.ORG API","18 SPCS","48897","SPACEBEE-109","PAYLOAD","U","21059U","2023-01-04 14:09:17","229600","15.21012752","0.0008867","97.5775","139.3832","121.3292","238.8812","0","999","8445","0.0010615","0.00023556","0","3731987","0 SPACEBEE-109","1 48897U 21059U   23004.58978275  .00023556  00000-0  10615-2 0  9999","2 48897  97.5775 139.3832 0008867 121.3292 238.8812 15.21012752 84455","2021-059U","48897","6880.922","94.674","508.888","496.685","0"
"GENERATED VIA SPACETRACK.ORG API","18 SPCS","48897","SPACEBEE-109","PAYLOAD","U","21059U","2023-01-04 20:28:13","378368","15.21021727","0.0008866","97.5776","139.648","120.4637","239.7475","0","999","8449","0.00096741","0.00021461","0","3732134","0 SPACEBEE-109","1 48897U 21059U   23004.85293262  .00021461  00000-0  96741-3 0  9993","2 48897  97.5776 139.6480 0008866 120.4637 239.7475 15.21021727 84491","2021-059U","48897","6880.894","94.673","508.860","496.659","0"
"GENERATED VIA SPACETRACK.ORG API","18 SPCS","48897","SPACEBEE-109","PAYLOAD","U","21059U","2023-01-05 10:40:49","39392","15.2104531","0.0008894","97.5779","140.2436","118.3393","241.874","0","999","8458","0.00084613","0.00018768","0","3732939","0 SPACEBEE-109","1 48897U 21059U   23005.44501203  .00018768  00000-0  84613-3 0  9997","2 48897  97.5779 140.2436 0008894 118.3393 241.8740 15.21045310 84582","2021-059U","48897","6880.823","94.672","508.808","496.569","0"
"GENERATED VIA SPACETRACK.ORG API","18 SPCS","48897","SPACEBEE-109","PAYLOAD","U","21059U","2023-01-05 18:34:28","419456","15.21063014","0.0008959","97.5781","140.5746","117.3258","242.889","0","999","8463","0.00086383","0.00019173","0","3732963","0 SPACEBEE-109","1 48897U 21059U   23005.77394004  .00019173  00000-0  86383-3 0  9999","2 48897  97.5781 140.5746 0008959 117.3258 242.8890 15.21063014 84637","2021-059U","48897","6880.770","94.671","508.799","496.470","0"
